{"fetched_at":"2026-03-30T06:02:59Z","count":15439,"tles":[{"name":"STARLINK-34906","line1":"1 65896U 25224Q   26087.82723553  .00017551  00000+0  60318-3 0  9996","line2":"2 65896  53.1581 282.5015 0000859  82.1524 277.9575 15.30206889 27807","category":"Starlink"}]}